******** Week 948 almanac for PRN-01 ********
ID:                         01
Health:                     000
Eccentricity:               0.0
Time of Applicability(s):   0.0000
Orbital Inclination(rad):   1.706408409
Rate of Right Ascen(r/s):   0
SQRT(A)  (m 1/2):           2584.182656082
Right Ascen at Week(rad):   0.0
Argument of Perigee(rad):   0.0
Mean Anom(rad):             0.0
Af0(s):                     0.0
Af1(s/s):                   0.0
week:                        1